[
  {
    "OBJECT_NAME": "STARLINK-30421",
    "OBJECT_ID": "23161L",
    "EPOCH": "2025-11-11T06:51:28.756800",
    "MEAN_MOTION": 15.30202211,
    "ECCENTRICITY": 0.0001342,
    "INCLINATION": 53.16,
    "RA_OF_ASC_NODE": 342.5198,
    "ARG_OF_PERICENTER": 62.0771,
    "MEAN_ANOMALY": 298.0366,
    "EPHEMERIS_TYPE": 0,
    "CLASSIFICATION_TYPE": "U",
    "NORAD_CAT_ID": 58107,
    "ELEMENT_SET_NO": 999,
    "REV_AT_EPOCH": 11647,
    "BSTAR": 0.00069301,
    "MEAN_MOTION_DOT": 0.00020223,
    "MEAN_MOTION_DDOT": 0.0,
    "TLE_LINE1": "1 58107U 23161L   25315.28574950  .00020223  00000+0  69301-3 0  9990",
    "TLE_LINE2": "2 58107  53.1600 342.5198 0001342  62.0771 298.0366 15.30202211116473",
    "COMMENT": "Grouped by shell and plane from TLE"
  },
  {
    "OBJECT_NAME": "STARLINK-30611",
    "OBJECT_ID": "23161M",
    "EPOCH": "2025-11-11T07:21:52.666848",
    "MEAN_MOTION": 15.30189984,
    "ECCENTRICITY": 0.0001324,
    "INCLINATION": 53.1598,
    "RA_OF_ASC_NODE": 342.6339,
    "ARG_OF_PERICENTER": 100.4428,
    "MEAN_ANOMALY": 259.6723,
    "EPHEMERIS_TYPE": 0,
    "CLASSIFICATION_TYPE": "U",
    "NORAD_CAT_ID": 58108,
    "ELEMENT_SET_NO": 999,
    "REV_AT_EPOCH": 11647,
    "BSTAR": 0.00015989000000000002,
    "MEAN_MOTION_DOT": 4.378e-05,
    "MEAN_MOTION_DDOT": 0.0,
    "TLE_LINE1": "1 58108U 23161M   25315.30685957  .00004378  00000+0  15989-3 0  9990",
    "TLE_LINE2": "2 58108  53.1598 342.6339 0001324 100.4428 259.6723 15.30189984116475",
    "COMMENT": "Grouped by shell and plane from TLE"
  },
  {
    "OBJECT_NAME": "STARLINK-31603",
    "OBJECT_ID": "24046A",
    "EPOCH": "2025-11-11T06:16:02.928000",
    "MEAN_MOTION": 15.30207062,
    "ECCENTRICITY": 8.62e-05,
    "INCLINATION": 53.1602,
    "RA_OF_ASC_NODE": 345.7118,
    "ARG_OF_PERICENTER": 94.5001,
    "MEAN_ANOMALY": 265.6099,
    "EPHEMERIS_TYPE": 0,
    "CLASSIFICATION_TYPE": "U",
    "NORAD_CAT_ID": 59201,
    "ELEMENT_SET_NO": 999,
    "REV_AT_EPOCH": 9491,
    "BSTAR": 6.9866e-06,
    "MEAN_MOTION_DOT": -1.52e-06,
    "MEAN_MOTION_DDOT": 0.0,
    "TLE_LINE1": "1 59201U 24046A   25315.26114500 -.00000152  00000+0  69866-5 0  9996",
    "TLE_LINE2": "2 59201  53.1602 345.7118 0000862  94.5001 265.6099 15.30207062 94916",
    "COMMENT": "Grouped by shell and plane from TLE"
  },
  {
    "OBJECT_NAME": "STARLINK-31602",
    "OBJECT_ID": "24046B",
    "EPOCH": "2025-11-11T06:56:55.036032",
    "MEAN_MOTION": 15.30186479,
    "ECCENTRICITY": 0.0001542,
    "INCLINATION": 53.1623,
    "RA_OF_ASC_NODE": 345.1734,
    "ARG_OF_PERICENTER": 105.7331,
    "MEAN_ANOMALY": 254.384,
    "EPHEMERIS_TYPE": 0,
    "CLASSIFICATION_TYPE": "U",
    "NORAD_CAT_ID": 59202,
    "ELEMENT_SET_NO": 999,
    "REV_AT_EPOCH": 9492,
    "BSTAR": 0.00018010000000000001,
    "MEAN_MOTION_DOT": 4.976e-05,
    "MEAN_MOTION_DDOT": 0.0,
    "TLE_LINE1": "1 59202U 24046B   25315.28952588  .00004976  00000+0  18010-3 0  9995",
    "TLE_LINE2": "2 59202  53.1623 345.1734 0001542 105.7331 254.3840 15.30186479 94923",
    "COMMENT": "Grouped by shell and plane from TLE"
  },
  {
    "OBJECT_NAME": "STARLINK-31577",
    "OBJECT_ID": "24046C",
    "EPOCH": "2025-11-11T08:00:03.000384",
    "MEAN_MOTION": 15.30175761,
    "ECCENTRICITY": 0.0001338,
    "INCLINATION": 53.1601,
    "RA_OF_ASC_NODE": 344.7227,
    "ARG_OF_PERICENTER": 85.8384,
    "MEAN_ANOMALY": 283.8968,
    "EPHEMERIS_TYPE": 0,
    "CLASSIFICATION_TYPE": "U",
    "NORAD_CAT_ID": 59203,
    "ELEMENT_SET_NO": 999,
    "REV_AT_EPOCH": 588,
    "BSTAR": 0.00022709,
    "MEAN_MOTION_DOT": 6.367e-05,
    "MEAN_MOTION_DDOT": 0.0,
    "TLE_LINE1": "1 59203U 24046C   25315.33336806  .00006367  00000+0  22709-3 0  9997",
    "TLE_LINE2": "2 59203  53.1601 344.7227 0001338  85.8384 283.8968 15.30175761  5888",
    "COMMENT": "Grouped by shell and plane from TLE"
  },
  {
    "OBJECT_NAME": "STARLINK-31522",
    "OBJECT_ID": "24046D",
    "EPOCH": "2025-11-11T06:13:00.230880",
    "MEAN_MOTION": 15.30190929,
    "ECCENTRICITY": 8.56e-05,
    "INCLINATION": 53.1607,
    "RA_OF_ASC_NODE": 345.6955,
    "ARG_OF_PERICENTER": 124.3196,
    "MEAN_ANOMALY": 235.7886,
    "EPHEMERIS_TYPE": 0,
    "CLASSIFICATION_TYPE": "U",
    "NORAD_CAT_ID": 59204,
    "ELEMENT_SET_NO": 999,
    "REV_AT_EPOCH": 9491,
    "BSTAR": 0.0,
    "MEAN_MOTION_DOT": -1.728e-05,
    "MEAN_MOTION_DDOT": 0.0,
    "TLE_LINE1": "1 59204U 24046D   25315.25903045 -.00001728  00000+0 -46250-4 0  9990",
    "TLE_LINE2": "2 59204  53.1607 345.6955 0000856 124.3196 235.7886 15.30190929 94917",
    "COMMENT": "Grouped by shell and plane from TLE"
  },
  {
    "OBJECT_NAME": "STARLINK-31586",
    "OBJECT_ID": "24046E",
    "EPOCH": "2025-11-11T07:10:36.198048",
    "MEAN_MOTION": 15.30183284,
    "ECCENTRICITY": 0.0001277,
    "INCLINATION": 53.1615,
    "RA_OF_ASC_NODE": 345.2342,
    "ARG_OF_PERICENTER": 89.6677,
    "MEAN_ANOMALY": 270.4471,
    "EPHEMERIS_TYPE": 0,
    "CLASSIFICATION_TYPE": "U",
    "NORAD_CAT_ID": 59205,
    "ELEMENT_SET_NO": 999,
    "REV_AT_EPOCH": 9492,
    "BSTAR": 9.488600000000001e-05,
    "MEAN_MOTION_DOT": 2.451e-05,
    "MEAN_MOTION_DDOT": 0.0,
    "TLE_LINE1": "1 59205U 24046E   25315.29903007  .00002451  00000+0  94886-4 0  9993",
    "TLE_LINE2": "2 59205  53.1615 345.2342 0001277  89.6677 270.4471 15.30183284 94921",
    "COMMENT": "Grouped by shell and plane from TLE"
  },
  {
    "OBJECT_NAME": "STARLINK-31247",
    "OBJECT_ID": "24046F",
    "EPOCH": "2025-11-11T07:30:20.780928",
    "MEAN_MOTION": 15.30206643,
    "ECCENTRICITY": 0.0001269,
    "INCLINATION": 53.158,
    "RA_OF_ASC_NODE": 345.3189,
    "ARG_OF_PERICENTER": 93.5786,
    "MEAN_ANOMALY": 266.536,
    "EPHEMERIS_TYPE": 0,
    "CLASSIFICATION_TYPE": "U",
    "NORAD_CAT_ID": 59206,
    "ELEMENT_SET_NO": 999,
    "REV_AT_EPOCH": 9492,
    "BSTAR": 0.00050663,
    "MEAN_MOTION_DOT": 0.00014678,
    "MEAN_MOTION_DDOT": 0.0,
    "TLE_LINE1": "1 59206U 24046F   25315.31274052  .00014678  00000+0  50663-3 0  9996",
    "TLE_LINE2": "2 59206  53.1580 345.3189 0001269  93.5786 266.5360 15.30206643 94927",
    "COMMENT": "Grouped by shell and plane from TLE"
  },
  {
    "OBJECT_NAME": "STARLINK-31591",
    "OBJECT_ID": "24046G",
    "EPOCH": "2025-11-11T06:59:57.441120",
    "MEAN_MOTION": 15.30195155,
    "ECCENTRICITY": 0.0001194,
    "INCLINATION": 53.1623,
    "RA_OF_ASC_NODE": 345.1907,
    "ARG_OF_PERICENTER": 97.5656,
    "MEAN_ANOMALY": 262.5481,
    "EPHEMERIS_TYPE": 0,
    "CLASSIFICATION_TYPE": "U",
    "NORAD_CAT_ID": 59207,
    "ELEMENT_SET_NO": 999,
    "REV_AT_EPOCH": 9492,
    "BSTAR": 4.7944e-05,
    "MEAN_MOTION_DOT": 1.061e-05,
    "MEAN_MOTION_DDOT": 0.0,
    "TLE_LINE1": "1 59207U 24046G   25315.29163705  .00001061  00000+0  47944-4 0  9997",
    "TLE_LINE2": "2 59207  53.1623 345.1907 0001194  97.5656 262.5481 15.30195155 94924",
    "COMMENT": "Grouped by shell and plane from TLE"
  },
  {
    "OBJECT_NAME": "STARLINK-31576",
    "OBJECT_ID": "24046H",
    "EPOCH": "2025-11-11T06:47:48.181056",
    "MEAN_MOTION": 15.30197732,
    "ECCENTRICITY": 0.0001245,
    "INCLINATION": 53.1622,
    "RA_OF_ASC_NODE": 345.1375,
    "ARG_OF_PERICENTER": 104.0484,
    "MEAN_ANOMALY": 256.0656,
    "EPHEMERIS_TYPE": 0,
    "CLASSIFICATION_TYPE": "U",
    "NORAD_CAT_ID": 59208,
    "ELEMENT_SET_NO": 999,
    "REV_AT_EPOCH": 9492,
    "BSTAR": 0.0002179,
    "MEAN_MOTION_DOT": 6.099e-05,
    "MEAN_MOTION_DDOT": 0.0,
    "TLE_LINE1": "1 59208U 24046H   25315.28319654  .00006099  00000+0  21790-3 0  9999",
    "TLE_LINE2": "2 59208  53.1622 345.1375 0001245 104.0484 256.0656 15.30197732 94928",
    "COMMENT": "Grouped by shell and plane from TLE"
  },
  {
    "OBJECT_NAME": "STARLINK-31601",
    "OBJECT_ID": "24046J",
    "EPOCH": "2025-11-11T06:32:36.179808",
    "MEAN_MOTION": 15.30203928,
    "ECCENTRICITY": 0.0001398,
    "INCLINATION": 53.1615,
    "RA_OF_ASC_NODE": 345.0689,
    "ARG_OF_PERICENTER": 94.7156,
    "MEAN_ANOMALY": 265.4004,
    "EPHEMERIS_TYPE": 0,
    "CLASSIFICATION_TYPE": "U",
    "NORAD_CAT_ID": 59209,
    "ELEMENT_SET_NO": 999,
    "REV_AT_EPOCH": 9492,
    "BSTAR": 0.00011438,
    "MEAN_MOTION_DOT": 3.03e-05,
    "MEAN_MOTION_DDOT": 0.0,
    "TLE_LINE1": "1 59209U 24046J   25315.27264097  .00003030  00000+0  11438-3 0  9999",
    "TLE_LINE2": "2 59209  53.1615 345.0689 0001398  94.7156 265.4004 15.30203928 94924",
    "COMMENT": "Grouped by shell and plane from TLE"
  },
  {
    "OBJECT_NAME": "STARLINK-31520",
    "OBJECT_ID": "24046K",
    "EPOCH": "2025-11-11T02:43:36.937344",
    "MEAN_MOTION": 15.30194256,
    "ECCENTRICITY": 0.0001251,
    "INCLINATION": 53.1607,
    "RA_OF_ASC_NODE": 346.2095,
    "ARG_OF_PERICENTER": 66.5867,
    "MEAN_ANOMALY": 293.5265,
    "EPHEMERIS_TYPE": 0,
    "CLASSIFICATION_TYPE": "U",
    "NORAD_CAT_ID": 59210,
    "ELEMENT_SET_NO": 999,
    "REV_AT_EPOCH": 9489,
    "BSTAR": 0.00021103,
    "MEAN_MOTION_DOT": 5.895e-05,
    "MEAN_MOTION_DDOT": 0.0,
    "TLE_LINE1": "1 59210U 24046K   25315.11362196  .00005895  00000+0  21103-3 0  9994",
    "TLE_LINE2": "2 59210  53.1607 346.2095 0001251  66.5867 293.5265 15.30194256 94895",
    "COMMENT": "Grouped by shell and plane from TLE"
  },
  {
    "OBJECT_NAME": "STARLINK-31492",
    "OBJECT_ID": "24046M",
    "EPOCH": "2025-11-11T06:19:07.151808",
    "MEAN_MOTION": 15.30152542,
    "ECCENTRICITY": 0.0001062,
    "INCLINATION": 53.1598,
    "RA_OF_ASC_NODE": 345.7171,
    "ARG_OF_PERICENTER": 82.0007,
    "MEAN_ANOMALY": 278.1114,
    "EPHEMERIS_TYPE": 0,
    "CLASSIFICATION_TYPE": "U",
    "NORAD_CAT_ID": 59212,
    "ELEMENT_SET_NO": 999,
    "REV_AT_EPOCH": 9490,
    "BSTAR": 0.0,
    "MEAN_MOTION_DOT": -0.00010478,
    "MEAN_MOTION_DDOT": 0.0,
    "TLE_LINE1": "1 59212U 24046M   25315.26327722 -.00010478  00000+0 -34266-3 0  9997",
    "TLE_LINE2": "2 59212  53.1598 345.7171 0001062  82.0007 278.1114 15.30152542 94900",
    "COMMENT": "Grouped by shell and plane from TLE"
  }
]